{"fetched_at":"2026-07-07T07:58:47.704Z","source":"https://celestrak.org/NORAD/elements/gp.php?NAME=RADARSAT&FORMAT=JSON","constellation":"radarsat-2","records":[{"OBJECT_NAME":"RADARSAT-2","OBJECT_ID":"2007-061A","EPOCH":"2026-07-06T20:08:58.815168","CLASSIFICATION_TYPE":"U","MEAN_MOTION":14.29981865,"ECCENTRICITY":0.0001316,"INCLINATION":98.5781,"RA_OF_ASC_NODE":194.4912,"ARG_OF_PERICENTER":85.1291,"MEAN_ANOMALY":275.0041,"EPHEMERIS_TYPE":0,"NORAD_CAT_ID":32382,"ELEMENT_SET_NO":999,"REV_AT_EPOCH":96876,"BSTAR":0.00003398,"MEAN_MOTION_DOT":4.4e-7,"MEAN_MOTION_DDOT":0}]}
