RADARSAT-2              
1 32382U 07061A   26187.83956962  .00000044  00000+0  33980-4 0  9998
2 32382  98.5781 194.4912 0001316  85.1291 275.0041 14.29981865968763
